<?xml version="1.0" encoding="UTF-8"?>
<osm version="0.6" generator="openstreetmap-cgimap 2.0.1 (2270278 spike-07.openstreetmap.org)" copyright="OpenStreetMap and contributors" attribution="http://www.openstreetmap.org/copyright" license="http://opendatacommons.org/licenses/odbl/1-0/">
 <bounds minlat="13.8670330" minlon="100.4819760" maxlat="13.8692780" maxlon="100.4837680"/>
 <node id="1103131789" visible="true" version="1" changeset="6966344" timestamp="2011-01-14T11:39:15Z" user="kasom_k" uid="18605" lat="13.8664158" lon="100.4821716"/>
 <node id="1103131801" visible="true" version="3" changeset="11284320" timestamp="2012-04-13T07:33:51Z" user="Russ McD" uid="346601" lat="13.8704875" lon="100.4820539"/>
 <node id="1103131894" visible="true" version="2" changeset="11284320" timestamp="2012-04-13T07:33:52Z" user="Russ McD" uid="346601" lat="13.8704895" lon="100.4819418"/>
 <node id="1713952877" visible="true" version="2" changeset="62295837" timestamp="2018-09-05T01:36:36Z" user="udaykiran3" uid="7671560" lat="13.8695692" lon="100.4819674"/>
 <node id="1713952896" visible="true" version="2" changeset="62295837" timestamp="2018-09-05T01:36:36Z" user="udaykiran3" uid="7671560" lat="13.8694746" lon="100.4833440"/>
 <node id="1713952937" visible="true" version="2" changeset="62295837" timestamp="2018-09-05T01:36:36Z" user="udaykiran3" uid="7671560" lat="13.8694550" lon="100.4838416"/>
 <node id="1713952940" visible="true" version="2" changeset="62295837" timestamp="2018-09-05T01:36:36Z" user="udaykiran3" uid="7671560" lat="13.8695044" lon="100.4820880"/>
 <node id="1713969683" visible="true" version="1" changeset="11284320" timestamp="2012-04-13T07:49:00Z" user="Russ McD" uid="346601" lat="13.8680516" lon="100.4832690"/>
 <node id="1713969760" visible="true" version="1" changeset="11284320" timestamp="2012-04-13T07:49:02Z" user="Russ McD" uid="346601" lat="13.8687781" lon="100.4833119"/>
 <node id="1713969775" visible="true" version="2" changeset="62295837" timestamp="2018-09-05T01:36:36Z" user="udaykiran3" uid="7671560" lat="13.8656305" lon="100.4822018"/>
 <node id="1713969790" visible="true" version="2" changeset="93164416" timestamp="2020-10-28T08:12:32Z" user="kan_dala" uid="10669850" lat="13.8680151" lon="100.4837303"/>
 <node id="1713969822" visible="true" version="1" changeset="11284320" timestamp="2012-04-13T07:49:06Z" user="Russ McD" uid="346601" lat="13.8699909" lon="100.4820706"/>
 <node id="5880864241" visible="true" version="1" changeset="62269064" timestamp="2018-09-04T07:47:16Z" user="udaykiran3" uid="7671560" lat="13.8687901" lon="100.4808432"/>
 <node id="5880865704" visible="true" version="2" changeset="62295837" timestamp="2018-09-05T01:36:38Z" user="udaykiran3" uid="7671560" lat="13.8665256" lon="100.4820627"/>
 <node id="5880865705" visible="true" version="1" changeset="62269064" timestamp="2018-09-04T07:47:17Z" user="udaykiran3" uid="7671560" lat="13.8688129" lon="100.4818019"/>
 <node id="5880865716" visible="true" version="1" changeset="62269064" timestamp="2018-09-04T07:47:17Z" user="udaykiran3" uid="7671560" lat="13.8686399" lon="100.4798499"/>
 <node id="5880865717" visible="true" version="3" changeset="93164416" timestamp="2020-10-28T08:12:32Z" user="kan_dala" uid="10669850" lat="13.8685854" lon="100.4794711"/>
 <node id="5880865721" visible="true" version="2" changeset="93164416" timestamp="2020-10-28T08:12:32Z" user="kan_dala" uid="10669850" lat="13.8685761" lon="100.4792528"/>
 <node id="5880865723" visible="true" version="2" changeset="93164416" timestamp="2020-10-28T08:12:32Z" user="kan_dala" uid="10669850" lat="13.8685788" lon="100.4792335"/>
 <node id="5880865725" visible="true" version="2" changeset="93165163" timestamp="2020-10-28T08:26:57Z" user="kan_dala" uid="10669850" lat="13.8685568" lon="100.4788877"/>
 <node id="5880865726" visible="true" version="1" changeset="62269064" timestamp="2018-09-04T07:47:17Z" user="udaykiran3" uid="7671560" lat="13.8685945" lon="100.4795261"/>
 <node id="5880865727" visible="true" version="1" changeset="62269064" timestamp="2018-09-04T07:47:17Z" user="udaykiran3" uid="7671560" lat="13.8686166" lon="100.4797326"/>
 <node id="5880865728" visible="true" version="1" changeset="62269064" timestamp="2018-09-04T07:47:17Z" user="udaykiran3" uid="7671560" lat="13.8686622" lon="100.4799619"/>
 <node id="5880865729" visible="true" version="1" changeset="62269064" timestamp="2018-09-04T07:47:17Z" user="udaykiran3" uid="7671560" lat="13.8687716" lon="100.4807210"/>
 <node id="5880865730" visible="true" version="1" changeset="62269064" timestamp="2018-09-04T07:47:17Z" user="udaykiran3" uid="7671560" lat="13.8687976" lon="100.4808927"/>
 <node id="5880865731" visible="true" version="2" changeset="102552592" timestamp="2021-04-08T10:07:54Z" user="prashan_th" uid="11608851" lat="13.8688185" lon="100.4813687"/>
 <node id="5880865732" visible="true" version="1" changeset="62269064" timestamp="2018-09-04T07:47:17Z" user="udaykiran3" uid="7671560" lat="13.8688132" lon="100.4819918"/>
 <node id="5880865751" visible="true" version="1" changeset="62269064" timestamp="2018-09-04T07:47:17Z" user="udaykiran3" uid="7671560" lat="13.8700958" lon="100.4819525"/>
 <node id="5883208397" visible="true" version="2" changeset="102904656" timestamp="2021-04-14T06:21:34Z" user="guduri" uid="10539585" lat="13.8680151" lon="100.4822606"/>
 <node id="5883208417" visible="true" version="1" changeset="62295837" timestamp="2018-09-05T01:36:29Z" user="udaykiran3" uid="7671560" lat="13.8674004" lon="100.4832530"/>
 <node id="5883208418" visible="true" version="1" changeset="62295837" timestamp="2018-09-05T01:36:29Z" user="udaykiran3" uid="7671560" lat="13.8671467" lon="100.4832597"/>
 <node id="5883208604" visible="true" version="1" changeset="62295837" timestamp="2018-09-05T01:36:32Z" user="udaykiran3" uid="7671560" lat="13.8689005" lon="100.4822525"/>
 <node id="5883208606" visible="true" version="1" changeset="62295837" timestamp="2018-09-05T01:36:32Z" user="udaykiran3" uid="7671560" lat="13.8674045" lon="100.4834113"/>
 <node id="5883208607" visible="true" version="1" changeset="62295837" timestamp="2018-09-05T01:36:32Z" user="udaykiran3" uid="7671560" lat="13.8684332" lon="100.4821164"/>
 <node id="5883208608" visible="true" version="1" changeset="62295837" timestamp="2018-09-05T01:36:32Z" user="udaykiran3" uid="7671560" lat="13.8684370" lon="100.4822163"/>
 <node id="5883208609" visible="true" version="4" changeset="161661622" timestamp="2025-01-23T06:31:29Z" user="PipatSUD" uid="22408232" lat="13.8684347" lon="100.4822706">
  <tag k="access" v="permissive"/>
  <tag k="entrance" v="yes"/>
  <tag k="ref" v="ทางเข้ามหาวิทยาลัย"/>
 </node>
 <node id="5883208610" visible="true" version="2" changeset="161660485" timestamp="2025-01-23T05:23:47Z" user="Cxqwkkk_" uid="22414081" lat="13.8683778" lon="100.4822720"/>
 <node id="5883208611" visible="true" version="2" changeset="161660485" timestamp="2025-01-23T05:23:47Z" user="Cxqwkkk_" uid="22414081" lat="13.8674045" lon="100.4823197"/>
 <node id="5883208612" visible="true" version="2" changeset="161660485" timestamp="2025-01-23T05:23:47Z" user="Cxqwkkk_" uid="22414081" lat="13.8673674" lon="100.4823140"/>
 <node id="5883208613" visible="true" version="1" changeset="62295837" timestamp="2018-09-05T01:36:32Z" user="udaykiran3" uid="7671560" lat="13.8673433" lon="100.4822257"/>
 <node id="5883208614" visible="true" version="1" changeset="62295837" timestamp="2018-09-05T01:36:32Z" user="udaykiran3" uid="7671560" lat="13.8673253" lon="100.4821467"/>
 <node id="5883208627" visible="true" version="1" changeset="62295837" timestamp="2018-09-05T01:36:32Z" user="udaykiran3" uid="7671560" lat="13.8663020" lon="100.4821775"/>
 <node id="5883208650" visible="true" version="1" changeset="62295837" timestamp="2018-09-05T01:36:33Z" user="udaykiran3" uid="7671560" lat="13.8657628" lon="100.4820926"/>
 <node id="5883208652" visible="true" version="1" changeset="62295837" timestamp="2018-09-05T01:36:33Z" user="udaykiran3" uid="7671560" lat="13.8661286" lon="100.4820805"/>
 <node id="5883208653" visible="true" version="1" changeset="62295837" timestamp="2018-09-05T01:36:33Z" user="udaykiran3" uid="7671560" lat="13.8670152" lon="100.4813956"/>
 <node id="5883208654" visible="true" version="1" changeset="62295837" timestamp="2018-09-05T01:36:33Z" user="udaykiran3" uid="7671560" lat="13.8670373" lon="100.4820505"/>
 <node id="5883208655" visible="true" version="1" changeset="62295837" timestamp="2018-09-05T01:36:33Z" user="udaykiran3" uid="7671560" lat="13.8674969" lon="100.4813781"/>
 <node id="5883208656" visible="true" version="1" changeset="62295837" timestamp="2018-09-05T01:36:33Z" user="udaykiran3" uid="7671560" lat="13.8674890" lon="100.4820356"/>
 <node id="5883208657" visible="true" version="2" changeset="115043027" timestamp="2021-12-17T08:48:11Z" user="add_la" uid="14200350" lat="13.8681284" lon="100.4818019">
  <tag k="noexit" v="yes"/>
 </node>
 <node id="5883208658" visible="true" version="1" changeset="62295837" timestamp="2018-09-05T01:36:33Z" user="udaykiran3" uid="7671560" lat="13.8679357" lon="100.4818086"/>
 <node id="5883208659" visible="true" version="1" changeset="62295837" timestamp="2018-09-05T01:36:33Z" user="udaykiran3" uid="7671560" lat="13.8679175" lon="100.4818207"/>
 <node id="5883208660" visible="true" version="1" changeset="62295837" timestamp="2018-09-05T01:36:33Z" user="udaykiran3" uid="7671560" lat="13.8679071" lon="100.4818515"/>
 <node id="5883208661" visible="true" version="1" changeset="62295837" timestamp="2018-09-05T01:36:33Z" user="udaykiran3" uid="7671560" lat="13.8679097" lon="100.4820217"/>
 <node id="5883208662" visible="true" version="2" changeset="93205837" timestamp="2020-10-29T01:12:53Z" user="kan_dala" uid="10669850" lat="13.8681375" lon="100.4801524"/>
 <node id="5883208663" visible="true" version="1" changeset="62295837" timestamp="2018-09-05T01:36:33Z" user="udaykiran3" uid="7671560" lat="13.8682145" lon="100.4820116"/>
 <node id="6403336721" visible="true" version="1" changeset="69192352" timestamp="2019-04-14T03:44:05Z" user="swpk" uid="8958842" lat="13.8695999" lon="100.4820846">
  <tag k="bus" v="yes"/>
  <tag k="name" v="ซอยนนทบุรี 14"/>
  <tag k="name:en" v="Soi Nonthaburi 14"/>
  <tag k="name:th" v="ซอยนนทบุรี 14"/>
  <tag k="public_transport" v="stop_position"/>
 </node>
 <node id="6403369522" visible="true" version="2" changeset="69192966" timestamp="2019-04-14T04:51:22Z" user="swpk" uid="8958842" lat="13.8683798" lon="100.4820074">
  <tag k="bus" v="yes"/>
  <tag k="name" v="วัดแจ้งศิริสัมพันธ์"/>
  <tag k="name:en" v="Wat Chaeng Siri Samphan"/>
  <tag k="name:th" v="วัดแจ้งศิริสัมพันธ์"/>
  <tag k="public_transport" v="stop_position"/>
 </node>
 <node id="6403377447" visible="true" version="1" changeset="69192966" timestamp="2019-04-14T04:51:22Z" user="swpk" uid="8958842" lat="13.8682408" lon="100.4821603">
  <tag k="bench" v="yes"/>
  <tag k="bus" v="yes"/>
  <tag k="highway" v="bus_stop"/>
  <tag k="name" v="มหาวิทยาลัยเทคโนโลยีราชมงคลสุวรรณภูมิ"/>
  <tag k="name:en" v="Rajamangala University of Technology Suvarnabhumi"/>
  <tag k="name:th" v="มหาวิทยาลัยเทคโนโลยีราชมงคลสุวรรณภูมิ"/>
  <tag k="public_transport" v="platform"/>
  <tag k="shelter" v="yes"/>
 </node>
 <node id="6403377448" visible="true" version="1" changeset="69192966" timestamp="2019-04-14T04:51:22Z" user="swpk" uid="8958842" lat="13.8682423" lon="100.4821216">
  <tag k="bus" v="yes"/>
  <tag k="name" v="มหาวิทยาลัยเทคโนโลยีราชมงคลสุวรรณภูมิ"/>
  <tag k="name:en" v="Rajamangala University of Technology Suvarnabhumi"/>
  <tag k="name:th" v="มหาวิทยาลัยเทคโนโลยีราชมงคลสุวรรณภูมิ"/>
  <tag k="public_transport" v="stop_position"/>
 </node>
 <node id="7046044659" visible="true" version="1" changeset="78193630" timestamp="2019-12-10T08:27:29Z" user="swpk" uid="8958842" lat="13.8680944" lon="100.4819844"/>
 <node id="7046044660" visible="true" version="1" changeset="78193630" timestamp="2019-12-10T08:27:29Z" user="swpk" uid="8958842" lat="13.8680944" lon="100.4821532"/>
 <node id="7046044661" visible="true" version="1" changeset="78193630" timestamp="2019-12-10T08:27:29Z" user="swpk" uid="8958842" lat="13.8681204" lon="100.4819838"/>
 <node id="7046044662" visible="true" version="1" changeset="78193630" timestamp="2019-12-10T08:27:29Z" user="swpk" uid="8958842" lat="13.8681199" lon="100.4819622"/>
 <node id="7046044663" visible="true" version="1" changeset="78193630" timestamp="2019-12-10T08:27:29Z" user="swpk" uid="8958842" lat="13.8680466" lon="100.4819640"/>
 <node id="7046044664" visible="true" version="1" changeset="78193630" timestamp="2019-12-10T08:27:29Z" user="swpk" uid="8958842" lat="13.8680478" lon="100.4820171"/>
 <node id="7046044665" visible="true" version="1" changeset="78193630" timestamp="2019-12-10T08:27:29Z" user="swpk" uid="8958842" lat="13.8680658" lon="100.4821539"/>
 <node id="7046044666" visible="true" version="1" changeset="78193630" timestamp="2019-12-10T08:27:29Z" user="swpk" uid="8958842" lat="13.8680663" lon="100.4821739"/>
 <node id="7046044667" visible="true" version="1" changeset="78193630" timestamp="2019-12-10T08:27:29Z" user="swpk" uid="8958842" lat="13.8681381" lon="100.4821720"/>
 <node id="7046044668" visible="true" version="1" changeset="78193630" timestamp="2019-12-10T08:27:29Z" user="swpk" uid="8958842" lat="13.8681370" lon="100.4821245"/>
 <node id="7234521470" visible="true" version="1" changeset="81338964" timestamp="2020-02-22T05:45:19Z" user="swpk" uid="8958842" lat="13.8689793" lon="100.4823726"/>
 <node id="7234521471" visible="true" version="1" changeset="81338964" timestamp="2020-02-22T05:45:19Z" user="swpk" uid="8958842" lat="13.8689885" lon="100.4827730"/>
 <node id="7234521472" visible="true" version="1" changeset="81338964" timestamp="2020-02-22T05:45:19Z" user="swpk" uid="8958842" lat="13.8689253" lon="100.4827745"/>
 <node id="7234521473" visible="true" version="1" changeset="81338964" timestamp="2020-02-22T05:45:19Z" user="swpk" uid="8958842" lat="13.8689279" lon="100.4828876"/>
 <node id="7234521474" visible="true" version="1" changeset="81338964" timestamp="2020-02-22T05:45:19Z" user="swpk" uid="8958842" lat="13.8687886" lon="100.4828910"/>
 <node id="7234521475" visible="true" version="1" changeset="81338964" timestamp="2020-02-22T05:45:19Z" user="swpk" uid="8958842" lat="13.8687767" lon="100.4823776"/>
 <node id="7234521476" visible="true" version="1" changeset="81338964" timestamp="2020-02-22T05:45:19Z" user="swpk" uid="8958842" lat="13.8687606" lon="100.4828217"/>
 <node id="7234521477" visible="true" version="1" changeset="81338964" timestamp="2020-02-22T05:45:19Z" user="swpk" uid="8958842" lat="13.8687628" lon="100.4830242"/>
 <node id="7234521478" visible="true" version="1" changeset="81338964" timestamp="2020-02-22T05:45:19Z" user="swpk" uid="8958842" lat="13.8684422" lon="100.4830278"/>
 <node id="7234521479" visible="true" version="1" changeset="81338964" timestamp="2020-02-22T05:45:19Z" user="swpk" uid="8958842" lat="13.8684400" lon="100.4828254"/>
 <node id="7234521480" visible="true" version="1" changeset="81338964" timestamp="2020-02-22T05:45:19Z" user="swpk" uid="8958842" lat="13.8684122" lon="100.4828305"/>
 <node id="7234521481" visible="true" version="1" changeset="81338964" timestamp="2020-02-22T05:45:19Z" user="swpk" uid="8958842" lat="13.8684145" lon="100.4830154"/>
 <node id="7234521482" visible="true" version="1" changeset="81338964" timestamp="2020-02-22T05:45:19Z" user="swpk" uid="8958842" lat="13.8680024" lon="100.4830209"/>
 <node id="7234521483" visible="true" version="1" changeset="81338964" timestamp="2020-02-22T05:45:19Z" user="swpk" uid="8958842" lat="13.8680001" lon="100.4828360"/>
 <node id="7234521484" visible="true" version="1" changeset="81338964" timestamp="2020-02-22T05:45:19Z" user="swpk" uid="8958842" lat="13.8675881" lon="100.4823664"/>
 <node id="7234573012" visible="true" version="1" changeset="81338863" timestamp="2020-02-22T05:31:40Z" user="swpk" uid="8958842" lat="13.8691179" lon="100.4821988"/>
 <node id="7234573013" visible="true" version="1" changeset="81338863" timestamp="2020-02-22T05:31:40Z" user="swpk" uid="8958842" lat="13.8690762" lon="100.4830678"/>
 <node id="7234573014" visible="true" version="1" changeset="81338863" timestamp="2020-02-22T05:31:40Z" user="swpk" uid="8958842" lat="13.8679777" lon="100.4830489"/>
 <node id="7234573015" visible="true" version="1" changeset="81338863" timestamp="2020-02-22T05:31:40Z" user="swpk" uid="8958842" lat="13.8679887" lon="100.4835604"/>
 <node id="7234573016" visible="true" version="1" changeset="81338863" timestamp="2020-02-22T05:31:40Z" user="swpk" uid="8958842" lat="13.8676908" lon="100.4835869"/>
 <node id="7234573017" visible="true" version="1" changeset="81338863" timestamp="2020-02-22T05:31:40Z" user="swpk" uid="8958842" lat="13.8676871" lon="100.4834846"/>
 <node id="7234573018" visible="true" version="1" changeset="81338863" timestamp="2020-02-22T05:31:40Z" user="swpk" uid="8958842" lat="13.8671647" lon="100.4835111"/>
 <node id="7234579285" visible="true" version="1" changeset="81338964" timestamp="2020-02-22T05:45:19Z" user="swpk" uid="8958842" lat="13.8676020" lon="100.4826502"/>
 <node id="7234579286" visible="true" version="1" changeset="81338964" timestamp="2020-02-22T05:45:19Z" user="swpk" uid="8958842" lat="13.8678519" lon="100.4826373"/>
 <node id="7234579287" visible="true" version="1" changeset="81338964" timestamp="2020-02-22T05:45:19Z" user="swpk" uid="8958842" lat="13.8678593" lon="100.4827891"/>
 <node id="7234579288" visible="true" version="1" changeset="81338964" timestamp="2020-02-22T05:45:19Z" user="swpk" uid="8958842" lat="13.8674297" lon="100.4828115"/>
 <node id="7234579289" visible="true" version="1" changeset="81338964" timestamp="2020-02-22T05:45:19Z" user="swpk" uid="8958842" lat="13.8674083" lon="100.4823758"/>
 <node id="8058389507" visible="true" version="1" changeset="93164416" timestamp="2020-10-28T08:12:32Z" user="kan_dala" uid="10669850" lat="13.8687495" lon="100.4837653"/>
 <node id="8058389549" visible="true" version="1" changeset="93164416" timestamp="2020-10-28T08:12:32Z" user="kan_dala" uid="10669850" lat="13.8692703" lon="100.4827756"/>
 <node id="8058389550" visible="true" version="1" changeset="93164416" timestamp="2020-10-28T08:12:32Z" user="kan_dala" uid="10669850" lat="13.8694869" lon="100.4827783"/>
 <node id="8058398302" visible="true" version="1" changeset="93164810" timestamp="2020-10-28T08:20:15Z" user="kan_dala" uid="10669850" lat="13.8668331" lon="100.4830007"/>
 <node id="8058398303" visible="true" version="1" changeset="93164810" timestamp="2020-10-28T08:20:15Z" user="kan_dala" uid="10669850" lat="13.8670542" lon="100.4829995"/>
 <node id="8058398304" visible="true" version="1" changeset="93164810" timestamp="2020-10-28T08:20:15Z" user="kan_dala" uid="10669850" lat="13.8670998" lon="100.4829767"/>
 <node id="8058398305" visible="true" version="1" changeset="93164810" timestamp="2020-10-28T08:20:15Z" user="kan_dala" uid="10669850" lat="13.8671154" lon="100.4829499"/>
 <node id="8058398306" visible="true" version="1" changeset="93164810" timestamp="2020-10-28T08:20:15Z" user="kan_dala" uid="10669850" lat="13.8671089" lon="100.4824135"/>
 <node id="8058398307" visible="true" version="1" changeset="93164810" timestamp="2020-10-28T08:20:15Z" user="kan_dala" uid="10669850" lat="13.8671024" lon="100.4823598"/>
 <node id="8058398308" visible="true" version="1" changeset="93164810" timestamp="2020-10-28T08:20:15Z" user="kan_dala" uid="10669850" lat="13.8670816" lon="100.4823343"/>
 <node id="8058398309" visible="true" version="1" changeset="93164810" timestamp="2020-10-28T08:20:15Z" user="kan_dala" uid="10669850" lat="13.8668186" lon="100.4823385"/>
 <node id="8058398316" visible="true" version="1" changeset="93164810" timestamp="2020-10-28T08:20:15Z" user="kan_dala" uid="10669850" lat="13.8668146" lon="100.4821607"/>
 <node id="8981782540" visible="true" version="1" changeset="109173862" timestamp="2021-08-05T04:23:03Z" user="arayamm" uid="12973075" lat="13.8688152" lon="100.4821063"/>
 <node id="10882869237" visible="true" version="1" changeset="135924121" timestamp="2023-05-10T08:06:59Z" user="Sumittra_GrabTH" uid="18216682" lat="13.8682121" lon="100.4819525">
  <tag k="access" v="private"/>
  <tag k="barrier" v="gate"/>
 </node>
 <node id="10910582077" visible="true" version="1" changeset="136280741" timestamp="2023-05-19T04:56:48Z" user="djmorkman" uid="5547549" lat="13.8677223" lon="100.4820279"/>
 <node id="10910582078" visible="true" version="1" changeset="136280741" timestamp="2023-05-19T04:56:48Z" user="djmorkman" uid="5547549" lat="13.8677196" lon="100.4816356"/>
 <node id="11930783810" visible="true" version="1" changeset="151772720" timestamp="2024-05-24T14:23:05Z" user="monica_panciu" uid="14048305" lat="13.8692871" lon="100.4819765"/>
 <node id="12525396792" visible="true" version="1" changeset="161660039" timestamp="2025-01-23T04:50:01Z" user="Cxqwkkk_" uid="22414081" lat="13.8678663" lon="100.4828888"/>
 <node id="12525396793" visible="true" version="1" changeset="161660039" timestamp="2025-01-23T04:50:01Z" user="Cxqwkkk_" uid="22414081" lat="13.8677218" lon="100.4828972"/>
 <node id="12525396794" visible="true" version="1" changeset="161660039" timestamp="2025-01-23T04:50:01Z" user="Cxqwkkk_" uid="22414081" lat="13.8677272" lon="100.4832062"/>
 <node id="12525396795" visible="true" version="1" changeset="161660039" timestamp="2025-01-23T04:50:01Z" user="Cxqwkkk_" uid="22414081" lat="13.8679645" lon="100.4832174"/>
 <node id="12525396796" visible="true" version="1" changeset="161660039" timestamp="2025-01-23T04:50:01Z" user="Cxqwkkk_" uid="22414081" lat="13.8679154" lon="100.4830152"/>
 <node id="12525396797" visible="true" version="1" changeset="161660039" timestamp="2025-01-23T04:50:01Z" user="Cxqwkkk_" uid="22414081" lat="13.8678772" lon="100.4830208"/>
 <node id="12525396798" visible="true" version="1" changeset="161660039" timestamp="2025-01-23T04:50:01Z" user="Cxqwkkk_" uid="22414081" lat="13.8679769" lon="100.4831356"/>
 <node id="12525396799" visible="true" version="1" changeset="161660039" timestamp="2025-01-23T04:50:01Z" user="Cxqwkkk_" uid="22414081" lat="13.8679148" lon="100.4831274"/>
 <node id="12525411572" visible="true" version="3" changeset="161662564" timestamp="2025-01-23T07:13:14Z" user="Kri_ttt" uid="13669494" lat="13.8671770" lon="100.4822389"/>
 <node id="12525419326" visible="true" version="1" changeset="161660485" timestamp="2025-01-23T05:23:47Z" user="Cxqwkkk_" uid="22414081" lat="13.8686111" lon="100.4823264"/>
 <node id="12525419327" visible="true" version="1" changeset="161660485" timestamp="2025-01-23T05:23:47Z" user="Cxqwkkk_" uid="22414081" lat="13.8680071" lon="100.4823425"/>
 <node id="12525419328" visible="true" version="1" changeset="161660485" timestamp="2025-01-23T05:23:47Z" user="Cxqwkkk_" uid="22414081" lat="13.8680113" lon="100.4827632"/>
 <node id="12525419329" visible="true" version="1" changeset="161660485" timestamp="2025-01-23T05:23:47Z" user="Cxqwkkk_" uid="22414081" lat="13.8686254" lon="100.4827574"/>
 <node id="12525419330" visible="true" version="1" changeset="161660485" timestamp="2025-01-23T05:23:47Z" user="Cxqwkkk_" uid="22414081" lat="13.8686124" lon="100.4823632"/>
 <node id="12525419331" visible="true" version="1" changeset="161660485" timestamp="2025-01-23T05:23:47Z" user="Cxqwkkk_" uid="22414081" lat="13.8687849" lon="100.4823249"/>
 <node id="12525419332" visible="true" version="1" changeset="161660485" timestamp="2025-01-23T05:23:47Z" user="Cxqwkkk_" uid="22414081" lat="13.8687868" lon="100.4828117"/>
 <node id="12525419333" visible="true" version="1" changeset="161660485" timestamp="2025-01-23T05:23:47Z" user="Cxqwkkk_" uid="22414081" lat="13.8679556" lon="100.4828500"/>
 <node id="12525419334" visible="true" version="2" changeset="161662564" timestamp="2025-01-23T07:13:14Z" user="Kri_ttt" uid="13669494" lat="13.8679523" lon="100.4823450"/>
 <node id="12525419335" visible="true" version="1" changeset="161660485" timestamp="2025-01-23T05:23:47Z" user="Cxqwkkk_" uid="22414081" lat="13.8673693" lon="100.4823692"/>
 <node id="12525419336" visible="true" version="1" changeset="161660485" timestamp="2025-01-23T05:23:47Z" user="Cxqwkkk_" uid="22414081" lat="13.8673744" lon="100.4828603"/>
 <node id="12525419337" visible="true" version="1" changeset="161660485" timestamp="2025-01-23T05:23:47Z" user="Cxqwkkk_" uid="22414081" lat="13.8673866" lon="100.4828597">
  <tag k="highway" v="crossing"/>
 </node>
 <node id="12525419338" visible="true" version="1" changeset="161660485" timestamp="2025-01-23T05:23:47Z" user="Cxqwkkk_" uid="22414081" lat="13.8676718" lon="100.4828659"/>
 <node id="12525419339" visible="true" version="2" changeset="161660613" timestamp="2025-01-23T05:33:41Z" user="Cxqwkkk_" uid="22414081" lat="13.8674863" lon="100.4823660">
  <tag k="entrance" v="yes"/>
  <tag k="ref" v="ทางเข้าตึก 17"/>
 </node>
 <node id="12525419340" visible="true" version="2" changeset="161660613" timestamp="2025-01-23T05:33:41Z" user="Cxqwkkk_" uid="22414081" lat="13.8687874" lon="100.4827207">
  <tag k="entrance" v="yes"/>
  <tag k="ref" v="ทางเข้าตึก 21"/>
 </node>
 <node id="12525682596" visible="true" version="1" changeset="161660613" timestamp="2025-01-23T05:33:41Z" user="Cxqwkkk_" uid="22414081" lat="13.8685682" lon="100.4828239">
  <tag k="entrance" v="yes"/>
  <tag k="ref" v="ทางเข้าตึก 20"/>
 </node>
 <node id="12525682597" visible="true" version="1" changeset="161660613" timestamp="2025-01-23T05:33:41Z" user="Cxqwkkk_" uid="22414081" lat="13.8681964" lon="100.4828398">
  <tag k="entrance" v="yes"/>
  <tag k="ref" v="ทางเข้าตึก 19"/>
 </node>
 <node id="12525682598" visible="true" version="2" changeset="162133348" timestamp="2025-02-04T16:33:18Z" user="PipatSUD" uid="22408232" lat="13.8679530" lon="100.4827356">
  <tag k="entrance" v="yes"/>
  <tag k="ref" v="ทางเข้าตึก 17"/>
 </node>
 <node id="12525682599" visible="true" version="1" changeset="161660613" timestamp="2025-01-23T05:33:41Z" user="Cxqwkkk_" uid="22414081" lat="13.8673739" lon="100.4828144"/>
 <node id="12525682600" visible="true" version="2" changeset="161660704" timestamp="2025-01-23T05:39:50Z" user="Cxqwkkk_" uid="22414081" lat="13.8673333" lon="100.4828154">
  <tag k="entrance" v="yes"/>
  <tag k="ref" v="ทางเข้าโรงอาหาร"/>
 </node>
 <node id="12525686862" visible="true" version="1" changeset="161660704" timestamp="2025-01-23T05:39:50Z" user="Cxqwkkk_" uid="22414081" lat="13.8675820" lon="100.4828789"/>
 <node id="12525686863" visible="true" version="1" changeset="161660704" timestamp="2025-01-23T05:39:50Z" user="Cxqwkkk_" uid="22414081" lat="13.8674340" lon="100.4828789"/>
 <node id="12525686864" visible="true" version="1" changeset="161660704" timestamp="2025-01-23T05:39:50Z" user="Cxqwkkk_" uid="22414081" lat="13.8674379" lon="100.4832448"/>
 <node id="12525686865" visible="true" version="1" changeset="161660704" timestamp="2025-01-23T05:39:50Z" user="Cxqwkkk_" uid="22414081" lat="13.8676076" lon="100.4832387"/>
 <node id="12525686866" visible="true" version="1" changeset="161660704" timestamp="2025-01-23T05:39:50Z" user="Cxqwkkk_" uid="22414081" lat="13.8676076" lon="100.4830822"/>
 <node id="12525686867" visible="true" version="1" changeset="161660704" timestamp="2025-01-23T05:39:50Z" user="Cxqwkkk_" uid="22414081" lat="13.8676550" lon="100.4830761"/>
 <node id="12525686868" visible="true" version="1" changeset="161660704" timestamp="2025-01-23T05:39:50Z" user="Cxqwkkk_" uid="22414081" lat="13.8676570" lon="100.4830375"/>
 <node id="12525686869" visible="true" version="1" changeset="161660704" timestamp="2025-01-23T05:39:50Z" user="Cxqwkkk_" uid="22414081" lat="13.8676096" lon="100.4830314"/>
 <node id="12525686870" visible="true" version="1" changeset="161660704" timestamp="2025-01-23T05:39:50Z" user="Cxqwkkk_" uid="22414081" lat="13.8674973" lon="100.4828789">
  <tag k="entrance" v="yes"/>
  <tag k="ref" v="ทางเข้าตึก16"/>
 </node>
 <node id="12525686871" visible="true" version="1" changeset="161660704" timestamp="2025-01-23T05:39:50Z" user="Cxqwkkk_" uid="22414081" lat="13.8677941" lon="100.4828930"/>
 <node id="12525686872" visible="true" version="1" changeset="161660704" timestamp="2025-01-23T05:39:50Z" user="Cxqwkkk_" uid="22414081" lat="13.8678941" lon="100.4830183">
  <tag k="entrance" v="yes"/>
  <tag k="ref" v="ทางเข้าตึก 18"/>
 </node>
 <node id="12525687601" visible="true" version="1" changeset="161660613" timestamp="2025-01-23T05:33:41Z" user="Cxqwkkk_" uid="22414081" lat="13.8673013" lon="100.4823268"/>
 <node id="12525687602" visible="true" version="1" changeset="161660613" timestamp="2025-01-23T05:33:41Z" user="Cxqwkkk_" uid="22414081" lat="13.8671876" lon="100.4823289"/>
 <node id="12525687603" visible="true" version="1" changeset="161660613" timestamp="2025-01-23T05:33:41Z" user="Cxqwkkk_" uid="22414081" lat="13.8672062" lon="100.4828739"/>
 <node id="12525687604" visible="true" version="1" changeset="161660613" timestamp="2025-01-23T05:33:41Z" user="Cxqwkkk_" uid="22414081" lat="13.8673292" lon="100.4828750"/>
 <node id="12525737646" visible="true" version="1" changeset="161661622" timestamp="2025-01-23T06:31:29Z" user="PipatSUD" uid="22408232" lat="13.8684344" lon="100.4823311"/>
 <node id="12525738523" visible="true" version="1" changeset="161661539" timestamp="2025-01-23T06:27:40Z" user="PipatSUD" uid="22408232" lat="13.8678892" lon="100.4827386"/>
 <node id="12525738524" visible="true" version="1" changeset="161661539" timestamp="2025-01-23T06:27:40Z" user="PipatSUD" uid="22408232" lat="13.8677486" lon="100.4827399"/>
 <node id="12525738525" visible="true" version="1" changeset="161661539" timestamp="2025-01-23T06:27:40Z" user="PipatSUD" uid="22408232" lat="13.8676197" lon="100.4827453"/>
 <node id="12525738526" visible="true" version="1" changeset="161661539" timestamp="2025-01-23T06:27:40Z" user="PipatSUD" uid="22408232" lat="13.8674635" lon="100.4827560"/>
 <node id="12525738527" visible="true" version="1" changeset="161661539" timestamp="2025-01-23T06:27:40Z" user="PipatSUD" uid="22408232" lat="13.8674998" lon="100.4827535"/>
 <node id="12525738528" visible="true" version="1" changeset="161661539" timestamp="2025-01-23T06:27:40Z" user="PipatSUD" uid="22408232" lat="13.8685662" lon="100.4827580"/>
 <node id="12525738529" visible="true" version="1" changeset="161661539" timestamp="2025-01-23T06:27:40Z" user="PipatSUD" uid="22408232" lat="13.8681960" lon="100.4827615"/>
 <node id="12525738530" visible="true" version="1" changeset="161661539" timestamp="2025-01-23T06:27:40Z" user="PipatSUD" uid="22408232" lat="13.8680110" lon="100.4827310"/>
 <node id="12525738531" visible="true" version="1" changeset="161661539" timestamp="2025-01-23T06:27:40Z" user="PipatSUD" uid="22408232" lat="13.8674983" lon="100.4828621"/>
 <node id="12525738532" visible="true" version="1" changeset="161661539" timestamp="2025-01-23T06:27:40Z" user="PipatSUD" uid="22408232" lat="13.8686993" lon="100.4828166"/>
 <node id="12556819543" visible="true" version="1" changeset="162133348" timestamp="2025-02-04T16:33:18Z" user="PipatSUD" uid="22408232" lat="13.8676947" lon="100.4828646"/>
 <node id="12556819544" visible="true" version="1" changeset="162133348" timestamp="2025-02-04T16:33:18Z" user="PipatSUD" uid="22408232" lat="13.8676995" lon="100.4827420"/>
 <node id="12558863226" visible="true" version="1" changeset="162164742" timestamp="2025-02-05T13:05:57Z" user="PipatSUD" uid="22408232" lat="13.8674916" lon="100.4825191"/>
 <node id="12558863227" visible="true" version="1" changeset="162164742" timestamp="2025-02-05T13:05:57Z" user="PipatSUD" uid="22408232" lat="13.8673709" lon="100.4825229"/>
 <way id="155339879" visible="true" version="25" changeset="156589857" timestamp="2024-09-13T21:30:39Z" user="Kri_ttt" uid="13669494">
  <nd ref="1103131801"/>
  <nd ref="1713969822"/>
  <nd ref="6403336721"/>
  <nd ref="1713952940"/>
  <nd ref="8981782540"/>
  <nd ref="5883208607"/>
  <nd ref="6403377448"/>
  <nd ref="7046044668"/>
  <nd ref="5883208614"/>
  <nd ref="8058398316"/>
  <nd ref="1103131789"/>
  <nd ref="5883208627"/>
  <nd ref="1713969775"/>
  <tag k="highway" v="secondary"/>
  <tag k="maxspeed" v="40"/>
  <tag k="name" v="ถนนนนทบุรี 1"/>
  <tag k="name:en" v="Nonthaburi 1 Road"/>
  <tag k="name:th" v="ถนนนนทบุรี 1"/>
  <tag k="old_ref" v="3110"/>
  <tag k="oneway" v="yes"/>
 </way>
 <way id="159295473" visible="true" version="3" changeset="135916759" timestamp="2023-05-10T03:01:52Z" user="Sumittra_GrabTH" uid="18216682">
  <nd ref="1713969683"/>
  <nd ref="1713969760"/>
  <nd ref="1713952896"/>
  <tag k="highway" v="residential"/>
  <tag k="name" v="ซอยนนทบุรี 14 แยก 2"/>
  <tag k="name:en" v="Soi Nonthaburi 14 Yaek 2"/>
  <tag k="name:th" v="ซอยนนทบุรี 14 แยก 2"/>
  <tag k="source" v="Bing"/>
 </way>
 <way id="159295475" visible="true" version="4" changeset="135922288" timestamp="2023-05-10T07:12:58Z" user="Sumittra_GrabTH" uid="18216682">
  <nd ref="1713969790"/>
  <nd ref="8058389507"/>
  <nd ref="1713952937"/>
  <tag k="highway" v="residential"/>
  <tag k="name" v="ซอยนนทบุรี 14 แยก 4"/>
  <tag k="name:en" v="Soi Nonthaburi 14 Yaek 4"/>
  <tag k="name:th" v="ซอยนนทบุรี 14 แยก 4"/>
  <tag k="source" v="Bing"/>
 </way>
 <way id="622627479" visible="true" version="3" changeset="93164416" timestamp="2020-10-28T08:12:32Z" user="kan_dala" uid="10669850">
  <nd ref="5880865732"/>
  <nd ref="5880865705"/>
  <nd ref="5880865731"/>
  <nd ref="5880865730"/>
  <nd ref="5880864241"/>
  <nd ref="5880865729"/>
  <nd ref="5880865728"/>
  <nd ref="5880865716"/>
  <nd ref="5880865727"/>
  <nd ref="5880865726"/>
  <nd ref="5880865717"/>
  <nd ref="5880865721"/>
  <nd ref="5880865723"/>
  <nd ref="5880865725"/>
  <tag k="highway" v="residential"/>
  <tag k="name" v="ซอยนนทบุรี 13"/>
  <tag k="name:en" v="Soi Nonthaburi 13"/>
  <tag k="name:th" v="ซอยนนทบุรี 13"/>
 </way>
 <way id="622923410" visible="true" version="1" changeset="62295837" timestamp="2018-09-05T01:36:33Z" user="udaykiran3" uid="7671560">
  <nd ref="5883208418"/>
  <nd ref="5883208417"/>
  <tag k="highway" v="residential"/>
 </way>
 <way id="622923444" visible="true" version="2" changeset="93164810" timestamp="2020-10-28T08:20:15Z" user="kan_dala" uid="10669850">
  <nd ref="5883208609"/>
  <nd ref="5883208604"/>
  <tag k="highway" v="service"/>
 </way>
 <way id="622923446" visible="true" version="2" changeset="161660485" timestamp="2025-01-23T05:23:47Z" user="Cxqwkkk_" uid="22414081">
  <nd ref="5883208612"/>
  <nd ref="12525419335"/>
  <nd ref="12525419337"/>
  <nd ref="5883208417"/>
  <nd ref="5883208606"/>
  <tag k="highway" v="residential"/>
 </way>
 <way id="622923447" visible="true" version="3" changeset="102904656" timestamp="2021-04-14T06:21:34Z" user="guduri" uid="10539585">
  <nd ref="5883208614"/>
  <nd ref="5883208613"/>
  <nd ref="5883208612"/>
  <nd ref="5883208611"/>
  <nd ref="5883208397"/>
  <nd ref="5883208610"/>
  <nd ref="5883208609"/>
  <nd ref="5883208608"/>
  <nd ref="5883208607"/>
  <tag k="highway" v="service"/>
 </way>
 <way id="622923457" visible="true" version="1" changeset="62295837" timestamp="2018-09-05T01:36:35Z" user="udaykiran3" uid="7671560">
  <nd ref="5883208654"/>
  <nd ref="5883208653"/>
  <tag k="highway" v="residential"/>
 </way>
 <way id="622923458" visible="true" version="3" changeset="137628278" timestamp="2023-06-22T03:56:09Z" user="GrabTH_Napittha" uid="15509145">
  <nd ref="5883208656"/>
  <nd ref="5883208655"/>
  <tag k="highway" v="residential"/>
  <tag k="name" v="ซอยนนทบุรี 11/4"/>
  <tag k="name:en" v="Soi Nonthaburi 11/4"/>
  <tag k="name:th" v="ซอยนนทบุรี 11/4"/>
  <tag k="source" v="Bing"/>
 </way>
 <way id="622923459" visible="true" version="1" changeset="62295837" timestamp="2018-09-05T01:36:35Z" user="udaykiran3" uid="7671560">
  <nd ref="5883208661"/>
  <nd ref="5883208660"/>
  <nd ref="5883208659"/>
  <nd ref="5883208658"/>
  <nd ref="5883208657"/>
  <tag k="highway" v="service"/>
 </way>
 <way id="622923460" visible="true" version="2" changeset="135924121" timestamp="2023-05-10T08:06:59Z" user="Sumittra_GrabTH" uid="18216682">
  <nd ref="5883208663"/>
  <nd ref="10882869237"/>
  <nd ref="5883208662"/>
  <tag k="highway" v="service"/>
 </way>
 <way id="754194087" visible="true" version="1" changeset="78193630" timestamp="2019-12-10T08:27:29Z" user="swpk" uid="8958842">
  <nd ref="7046044659"/>
  <nd ref="7046044660"/>
  <tag k="bridge" v="yes"/>
  <tag k="highway" v="footway"/>
  <tag k="layer" v="1"/>
 </way>
 <way id="754194088" visible="true" version="2" changeset="78795455" timestamp="2019-12-24T02:13:50Z" user="swpk" uid="8958842">
  <nd ref="7046044659"/>
  <nd ref="7046044661"/>
  <nd ref="7046044662"/>
  <nd ref="7046044663"/>
  <tag k="highway" v="steps"/>
 </way>
 <way id="754194089" visible="true" version="2" changeset="78795455" timestamp="2019-12-24T02:13:50Z" user="swpk" uid="8958842">
  <nd ref="7046044660"/>
  <nd ref="7046044665"/>
  <nd ref="7046044666"/>
  <nd ref="7046044667"/>
  <tag k="highway" v="steps"/>
 </way>
 <way id="758262942" visible="true" version="1" changeset="78795455" timestamp="2019-12-24T02:13:50Z" user="swpk" uid="8958842">
  <nd ref="7046044663"/>
  <nd ref="7046044664"/>
  <tag k="highway" v="footway"/>
 </way>
 <way id="758262943" visible="true" version="1" changeset="78795455" timestamp="2019-12-24T02:13:50Z" user="swpk" uid="8958842">
  <nd ref="7046044667"/>
  <nd ref="7046044668"/>
  <tag k="highway" v="footway"/>
 </way>
 <way id="775451751" visible="true" version="5" changeset="161662564" timestamp="2025-01-23T07:13:14Z" user="Kri_ttt" uid="13669494">
  <nd ref="12525411572"/>
  <nd ref="7234573012"/>
  <nd ref="7234573013"/>
  <nd ref="7234573014"/>
  <nd ref="12525396798"/>
  <nd ref="7234573015"/>
  <nd ref="7234573016"/>
  <nd ref="7234573017"/>
  <nd ref="7234573018"/>
  <nd ref="12525411572"/>
  <tag k="addr:district" v="เมือง"/>
  <tag k="addr:housenumber" v="144"/>
  <tag k="addr:place" v="มหาวิทยาลัยเทคโนโลยีราชมงคลสุวรรณภูมิ ศูนย์นนทบุรี เขตเหนือ"/>
  <tag k="addr:postcode" v="11000"/>
  <tag k="addr:province" v="นนทบุรี"/>
  <tag k="addr:street" v="นนทบุรี"/>
  <tag k="addr:subdistrict" v="บางกระสอ"/>
  <tag k="amenity" v="university"/>
  <tag k="internet_access" v="wlan"/>
  <tag k="name" v="มหาวิทยาลัยเทคโนโลยีราชมงคลสุวรรณภูมิ ศูนย์นนทบุรี เขตเหนือ"/>
  <tag k="name:en" v="Rajamangala University of Technology Suvarnabhumi Nonthaburi North Campus"/>
  <tag k="name:th" v="มหาวิทยาลัยเทคโนโลยีราชมงคลสุวรรณภูมิ ศูนย์นนทบุรี เขตเหนือ"/>
  <tag k="website" v="https://www.rmutsb.ac.th/;https://rmutsb.ac.th/home"/>
 </way>
 <way id="775452356" visible="true" version="4" changeset="161660613" timestamp="2025-01-23T05:33:41Z" user="Cxqwkkk_" uid="22414081">
  <nd ref="7234521470"/>
  <nd ref="7234521471"/>
  <nd ref="7234521472"/>
  <nd ref="7234521473"/>
  <nd ref="7234521474"/>
  <nd ref="12525419332"/>
  <nd ref="12525419340"/>
  <nd ref="7234521475"/>
  <nd ref="7234521470"/>
  <tag k="building" v="university"/>
  <tag k="building:levels" v="15"/>
  <tag k="fixme" v="estimated levels: 14-15 floor."/>
  <tag k="name" v="ตึก 21"/>
 </way>
 <way id="775452357" visible="true" version="3" changeset="161660613" timestamp="2025-01-23T05:33:41Z" user="Cxqwkkk_" uid="22414081">
  <nd ref="7234521476"/>
  <nd ref="7234521477"/>
  <nd ref="7234521478"/>
  <nd ref="7234521479"/>
  <nd ref="12525682596"/>
  <nd ref="7234521476"/>
  <tag k="building" v="university"/>
  <tag k="building:levels" v="10"/>
  <tag k="name" v="ตึก 20"/>
 </way>
 <way id="775452358" visible="true" version="2" changeset="161606193" timestamp="2025-01-21T16:06:47Z" user="PipatSUD" uid="22408232">
  <nd ref="7234521480"/>
  <nd ref="7234521481"/>
  <nd ref="7234521482"/>
  <nd ref="7234521483"/>
  <nd ref="7234521480"/>
  <tag k="building" v="university"/>
  <tag k="building:levels" v="7"/>
  <tag k="name" v="ตึก 19"/>
 </way>
 <way id="775452359" visible="true" version="2" changeset="161606193" timestamp="2025-01-21T16:06:47Z" user="PipatSUD" uid="22408232">
  <nd ref="7234521484"/>
  <nd ref="7234579285"/>
  <nd ref="7234579286"/>
  <nd ref="7234579287"/>
  <nd ref="7234579288"/>
  <nd ref="7234579289"/>
  <nd ref="7234521484"/>
  <tag k="building" v="university"/>
  <tag k="building:levels" v="10"/>
  <tag k="fixme" v="estimated floor: 10"/>
  <tag k="name" v="ตึก 17"/>
 </way>
 <way id="864557428" visible="true" version="1" changeset="93164416" timestamp="2020-10-28T08:12:32Z" user="kan_dala" uid="10669850">
  <nd ref="8058389550"/>
  <nd ref="8058389549"/>
  <tag k="highway" v="residential"/>
 </way>
 <way id="864558678" visible="true" version="1" changeset="93164810" timestamp="2020-10-28T08:20:15Z" user="kan_dala" uid="10669850">
  <nd ref="8058398309"/>
  <nd ref="8058398308"/>
  <nd ref="8058398307"/>
  <nd ref="8058398306"/>
  <nd ref="8058398305"/>
  <nd ref="8058398304"/>
  <nd ref="8058398303"/>
  <nd ref="8058398302"/>
  <tag k="highway" v="service"/>
 </way>
 <way id="877741883" visible="true" version="6" changeset="156589857" timestamp="2024-09-13T21:30:39Z" user="Kri_ttt" uid="13669494">
  <nd ref="5883208650"/>
  <nd ref="5883208652"/>
  <nd ref="5880865704"/>
  <nd ref="5883208654"/>
  <nd ref="5883208656"/>
  <nd ref="10910582077"/>
  <nd ref="5883208661"/>
  <nd ref="7046044664"/>
  <nd ref="5883208663"/>
  <nd ref="6403369522"/>
  <nd ref="5880865732"/>
  <nd ref="11930783810"/>
  <nd ref="1713952877"/>
  <nd ref="5880865751"/>
  <nd ref="1103131894"/>
  <tag k="highway" v="secondary"/>
  <tag k="maxspeed" v="40"/>
  <tag k="name" v="ถนนนนทบุรี 1"/>
  <tag k="name:en" v="Nonthaburi 1 Road"/>
  <tag k="name:th" v="ถนนนนทบุรี 1"/>
  <tag k="old_ref" v="3110"/>
  <tag k="oneway" v="yes"/>
  <tag k="source" v="gps"/>
 </way>
 <way id="970527287" visible="true" version="1" changeset="109173862" timestamp="2021-08-05T04:23:03Z" user="arayamm" uid="12973075">
  <nd ref="5880865732"/>
  <nd ref="8981782540"/>
  <tag k="highway" v="residential"/>
 </way>
 <way id="1174204555" visible="true" version="1" changeset="136280741" timestamp="2023-05-19T04:56:48Z" user="djmorkman" uid="5547549">
  <nd ref="10910582077"/>
  <nd ref="10910582078"/>
  <tag k="highway" v="path"/>
 </way>
 <way id="1353585715" visible="true" version="4" changeset="161660704" timestamp="2025-01-23T05:39:50Z" user="Cxqwkkk_" uid="22414081">
  <nd ref="12525396792"/>
  <nd ref="12525686871"/>
  <nd ref="12525396793"/>
  <nd ref="12525396794"/>
  <nd ref="12525396795"/>
  <nd ref="12525396798"/>
  <nd ref="12525396799"/>
  <nd ref="12525396796"/>
  <nd ref="12525686872"/>
  <nd ref="12525396797"/>
  <nd ref="12525396792"/>
  <tag k="addr:place" v="มหาวิทยาลัยราชมงคลสุวรรณภูมิ ศูนย์ นนทบุรี"/>
  <tag k="building" v="university"/>
  <tag k="name" v="ตึก 18"/>
 </way>
 <way id="1353588575" visible="true" version="4" changeset="161662564" timestamp="2025-01-23T07:13:14Z" user="Kri_ttt" uid="13669494">
  <nd ref="12525738528"/>
  <nd ref="12525419329"/>
  <nd ref="12525419330"/>
  <nd ref="12525419326"/>
  <nd ref="12525737646"/>
  <nd ref="12525419327"/>
  <tag k="highway" v="footway"/>
 </way>
 <way id="1353588576" visible="true" version="4" changeset="161662564" timestamp="2025-01-23T07:13:14Z" user="Kri_ttt" uid="13669494">
  <nd ref="12525419326"/>
  <nd ref="12525419331"/>
  <nd ref="12525419340"/>
  <nd ref="12525419332"/>
  <nd ref="12525738532"/>
  <nd ref="12525682596"/>
  <nd ref="12525682597"/>
  <nd ref="12525419333"/>
  <nd ref="12525682598"/>
  <nd ref="12525419334"/>
  <tag k="highway" v="footway"/>
  <tag k="layer" v="1"/>
 </way>
 <way id="1353589823" visible="true" version="1" changeset="161660613" timestamp="2025-01-23T05:33:41Z" user="Cxqwkkk_" uid="22414081">
  <nd ref="12525682599"/>
  <nd ref="12525682600"/>
  <tag k="highway" v="footway"/>
  <tag k="name" v="ทางเท้า"/>
 </way>
 <way id="1353589824" visible="true" version="1" changeset="161660613" timestamp="2025-01-23T05:33:41Z" user="Cxqwkkk_" uid="22414081">
  <nd ref="12525687601"/>
  <nd ref="12525687602"/>
  <nd ref="12525687603"/>
  <nd ref="12525687604"/>
  <nd ref="12525687601"/>
  <tag k="amenity" v="fast_food"/>
  <tag k="building" v="yes"/>
  <tag k="fast_food" v="cafeteria"/>
  <tag k="name" v="โรงอาหาร"/>
 </way>
 <way id="1353590750" visible="true" version="1" changeset="161660704" timestamp="2025-01-23T05:39:50Z" user="Cxqwkkk_" uid="22414081">
  <nd ref="12525686862"/>
  <nd ref="12525686870"/>
  <nd ref="12525686863"/>
  <nd ref="12525686864"/>
  <nd ref="12525686865"/>
  <nd ref="12525686866"/>
  <nd ref="12525686867"/>
  <nd ref="12525686868"/>
  <nd ref="12525686869"/>
  <nd ref="12525686862"/>
  <tag k="building" v="university"/>
  <tag k="name" v="ตึก 16"/>
 </way>
 <way id="1353596741" visible="true" version="2" changeset="162133348" timestamp="2025-02-04T16:33:18Z" user="PipatSUD" uid="22408232">
  <nd ref="12525682598"/>
  <nd ref="12525738523"/>
  <nd ref="12525738524"/>
  <nd ref="12556819544"/>
  <nd ref="12525738525"/>
  <nd ref="12525738527"/>
  <nd ref="12525738526"/>
  <nd ref="12525682599"/>
  <tag k="highway" v="footway"/>
 </way>
 <way id="1353596742" visible="true" version="2" changeset="162164742" timestamp="2025-02-05T13:05:57Z" user="PipatSUD" uid="22408232">
  <nd ref="12525419339"/>
  <nd ref="12558863226"/>
  <nd ref="12525738527"/>
  <tag k="highway" v="footway"/>
 </way>
 <way id="1353596743" visible="true" version="1" changeset="161661539" timestamp="2025-01-23T06:27:40Z" user="PipatSUD" uid="22408232">
  <nd ref="12525682596"/>
  <nd ref="12525738528"/>
  <tag k="highway" v="footway"/>
 </way>
 <way id="1353596744" visible="true" version="1" changeset="161661539" timestamp="2025-01-23T06:27:40Z" user="PipatSUD" uid="22408232">
  <nd ref="12525682597"/>
  <nd ref="12525738529"/>
  <tag k="highway" v="footway"/>
 </way>
 <way id="1353596745" visible="true" version="1" changeset="161661539" timestamp="2025-01-23T06:27:40Z" user="PipatSUD" uid="22408232">
  <nd ref="12525738530"/>
  <nd ref="12525682598"/>
  <tag k="highway" v="footway"/>
 </way>
 <way id="1353596746" visible="true" version="1" changeset="161661539" timestamp="2025-01-23T06:27:40Z" user="PipatSUD" uid="22408232">
  <nd ref="12525419333"/>
  <nd ref="12525686872"/>
  <tag k="highway" v="footway"/>
 </way>
 <way id="1353596747" visible="true" version="1" changeset="161661539" timestamp="2025-01-23T06:27:40Z" user="PipatSUD" uid="22408232">
  <nd ref="12525686870"/>
  <nd ref="12525738531"/>
  <tag k="highway" v="footway"/>
 </way>
 <way id="1353596748" visible="true" version="1" changeset="161661539" timestamp="2025-01-23T06:27:40Z" user="PipatSUD" uid="22408232">
  <nd ref="12525419329"/>
  <nd ref="12525738532"/>
  <tag k="highway" v="footway"/>
 </way>
 <way id="1353597028" visible="true" version="1" changeset="161661622" timestamp="2025-01-23T06:31:29Z" user="PipatSUD" uid="22408232">
  <nd ref="5883208609"/>
  <nd ref="12525737646"/>
  <tag k="highway" v="footway"/>
 </way>
 <way id="1353602864" visible="true" version="3" changeset="162164742" timestamp="2025-02-05T13:05:57Z" user="PipatSUD" uid="22408232">
  <nd ref="12525419327"/>
  <nd ref="12525419334"/>
  <nd ref="12525419339"/>
  <nd ref="12525419335"/>
  <nd ref="12558863227"/>
  <nd ref="12525682599"/>
  <nd ref="12525419336"/>
  <nd ref="12525419337"/>
  <nd ref="12525738531"/>
  <nd ref="12525419338"/>
  <nd ref="12556819543"/>
  <nd ref="12525419333"/>
  <tag k="highway" v="footway"/>
  <tag k="layer" v="1"/>
 </way>
 <way id="1353602865" visible="true" version="1" changeset="161662564" timestamp="2025-01-23T07:13:14Z" user="Kri_ttt" uid="13669494">
  <nd ref="12525419327"/>
  <nd ref="12525738530"/>
  <nd ref="12525419328"/>
  <nd ref="12525738529"/>
  <nd ref="12525738528"/>
  <tag k="highway" v="footway"/>
 </way>
 <way id="1356718950" visible="true" version="1" changeset="162133348" timestamp="2025-02-04T16:33:18Z" user="PipatSUD" uid="22408232">
  <nd ref="12556819543"/>
  <nd ref="12556819544"/>
  <tag k="highway" v="footway"/>
 </way>
 <way id="1356914741" visible="true" version="1" changeset="162164742" timestamp="2025-02-05T13:05:57Z" user="PipatSUD" uid="22408232">
  <nd ref="12558863226"/>
  <nd ref="12558863227"/>
  <tag k="highway" v="footway"/>
 </way>
 <relation id="3088610" visible="true" version="123" changeset="164468656" timestamp="2025-04-03T14:42:52Z" user="Kri_ttt" uid="13669494">
  <member type="node" ref="6388595805" role="stop_entry_only"/>
  <member type="node" ref="6399709006" role="platform_entry_only"/>
  <member type="node" ref="6653192144" role="stop"/>
  <member type="node" ref="6170032785" role="platform"/>
  <member type="node" ref="6653187235" role="stop"/>
  <member type="node" ref="6170023731" role="platform"/>
  <member type="node" ref="6403369522" role="stop"/>
  <member type="node" ref="6403369521" role="platform"/>
  <member type="node" ref="6162660123" role="stop"/>
  <member type="node" ref="6169977299" role="stop"/>
  <member type="node" ref="5480804422" role="stop"/>
  <member type="node" ref="1094439007" role="stop"/>
  <member type="node" ref="1517938686" role="stop"/>
  <member type="node" ref="1388450640" role="stop"/>
  <member type="node" ref="1971354195" role="stop"/>
  <member type="node" ref="6322941542" role="stop"/>
  <member type="way" ref="685215089" role=""/>
  <member type="way" ref="155339870" role=""/>
  <member type="way" ref="155339873" role=""/>
  <member type="way" ref="324162406" role=""/>
  <member type="way" ref="324162409" role=""/>
  <member type="way" ref="155339864" role=""/>
  <member type="way" ref="155339881" role=""/>
  <member type="way" ref="877741884" role=""/>
  <member type="way" ref="877741882" role=""/>
  <member type="way" ref="877741883" role=""/>
  <member type="way" ref="622923461" role=""/>
  <member type="way" ref="95079266" role=""/>
  <member type="way" ref="1059569211" role=""/>
  <member type="way" ref="152022326" role=""/>
  <member type="way" ref="152022337" role=""/>
  <member type="way" ref="95079278" role=""/>
  <member type="way" ref="152022342" role=""/>
  <member type="way" ref="95084760" role=""/>
  <member type="way" ref="750669467" role=""/>
  <member type="way" ref="1120094240" role=""/>
  <member type="way" ref="152022331" role=""/>
  <member type="way" ref="750669468" role=""/>
  <member type="way" ref="675580126" role=""/>
  <member type="way" ref="94059447" role=""/>
  <member type="way" ref="618144722" role=""/>
  <member type="way" ref="618144720" role=""/>
  <member type="way" ref="94669403" role=""/>
  <member type="way" ref="929705186" role=""/>
  <member type="way" ref="230335369" role=""/>
  <member type="way" ref="750671274" role=""/>
  <member type="way" ref="1050570870" role=""/>
  <member type="way" ref="94499755" role=""/>
  <member type="way" ref="230335373" role=""/>
  <member type="way" ref="954799116" role=""/>
  <member type="way" ref="948919833" role=""/>
  <member type="way" ref="954799114" role=""/>
  <member type="way" ref="948919831" role=""/>
  <member type="way" ref="948919832" role=""/>
  <member type="way" ref="658675886" role=""/>
  <member type="way" ref="1243611977" role=""/>
  <member type="way" ref="1243611996" role=""/>
  <member type="way" ref="1243611997" role=""/>
  <member type="way" ref="151682714" role=""/>
  <member type="way" ref="773020157" role=""/>
  <member type="way" ref="194755466" role=""/>
  <member type="way" ref="194755462" role=""/>
  <member type="way" ref="617537909" role=""/>
  <member type="way" ref="1081549332" role=""/>
  <member type="way" ref="152933567" role=""/>
  <member type="way" ref="199988156" role=""/>
  <member type="way" ref="199988157" role=""/>
  <member type="way" ref="230335362" role=""/>
  <member type="way" ref="124812304" role=""/>
  <member type="way" ref="616844010" role=""/>
  <member type="way" ref="616844009" role=""/>
  <member type="way" ref="230335355" role=""/>
  <member type="way" ref="1104449418" role=""/>
  <member type="way" ref="846340111" role=""/>
  <member type="way" ref="846340110" role=""/>
  <member type="way" ref="168739170" role=""/>
  <member type="way" ref="1303765262" role=""/>
  <member type="way" ref="175282255" role=""/>
  <member type="way" ref="1305263519" role=""/>
  <member type="way" ref="124874071" role=""/>
  <member type="way" ref="1192676783" role=""/>
  <member type="way" ref="1192676784" role=""/>
  <member type="way" ref="1192376782" role=""/>
  <member type="way" ref="970646415" role=""/>
  <member type="way" ref="970646416" role=""/>
  <member type="way" ref="156319978" role=""/>
  <member type="way" ref="230328190" role=""/>
  <member type="way" ref="852572467" role=""/>
  <member type="way" ref="852572469" role=""/>
  <member type="way" ref="168739146" role=""/>
  <member type="way" ref="879517283" role=""/>
  <member type="way" ref="1055907241" role=""/>
  <member type="way" ref="246153005" role=""/>
  <member type="way" ref="1047147556" role=""/>
  <member type="way" ref="300803435" role=""/>
  <member type="way" ref="124809646" role=""/>
  <member type="way" ref="124809645" role=""/>
  <member type="way" ref="1348464227" role=""/>
  <member type="way" ref="230335365" role=""/>
  <member type="way" ref="155607295" role=""/>
  <member type="way" ref="207797202" role=""/>
  <member type="way" ref="1026067440" role=""/>
  <member type="way" ref="1047147555" role=""/>
  <member type="way" ref="141208549" role=""/>
  <member type="way" ref="117108761" role=""/>
  <member type="way" ref="140890695" role=""/>
  <member type="way" ref="200337209" role=""/>
  <tag k="alt_name" v="ท่าน้ำนนท์-เมืองทองธานี-วัดสาลีโข"/>
  <tag k="colour" v="#3cbbf2"/>
  <tag k="from" v="Nonthaburi Pier"/>
  <tag k="interval" v="00:13"/>
  <tag k="name" v="1053 นนทบุรี → วัดสาลีโขภิตาราม"/>
  <tag k="name:en" v="1053 Nonthaburi → Wat Sali Kho Phitaram"/>
  <tag k="name:th" v="1053 นนทบุรี → วัดสาลีโขภิตาราม"/>
  <tag k="opening_hours" v="Mo-Su 05:30-20:00"/>
  <tag k="operator" v="บริษัท สนามบินน้ำ จำกัด"/>
  <tag k="public_transport:version" v="2"/>
  <tag k="ref" v="1053"/>
  <tag k="route" v="bus"/>
  <tag k="to" v="Wat Sali Kho Phitaram"/>
  <tag k="type" v="route"/>
 </relation>
 <relation id="9159635" visible="true" version="81" changeset="165492007" timestamp="2025-04-27T07:06:16Z" user="Kri_ttt" uid="13669494">
  <member type="node" ref="7234595864" role="stop_entry_only"/>
  <member type="node" ref="7234595863" role="platform_entry_only"/>
  <member type="node" ref="10599339447" role="stop"/>
  <member type="node" ref="6398862706" role="platform"/>
  <member type="node" ref="6416235007" role="stop"/>
  <member type="node" ref="6390064164" role="platform"/>
  <member type="node" ref="6654342829" role="stop"/>
  <member type="node" ref="6654233084" role="platform"/>
  <member type="node" ref="7021241661" role="stop"/>
  <member type="node" ref="7015745604" role="platform"/>
  <member type="node" ref="6579410060" role="platform"/>
  <member type="node" ref="6654326285" role="stop"/>
  <member type="node" ref="6322386138" role="platform"/>
  <member type="node" ref="6654287138" role="stop"/>
  <member type="node" ref="6162654294" role="platform"/>
  <member type="node" ref="6654287139" role="stop"/>
  <member type="node" ref="6579330269" role="platform"/>
  <member type="node" ref="7021237832" role="stop"/>
  <member type="node" ref="6741704246" role="platform"/>
  <member type="node" ref="7234581843" role="stop"/>
  <member type="node" ref="6741665128" role="platform"/>
  <member type="node" ref="7234581844" role="stop"/>
  <member type="node" ref="1094439007" role="platform"/>
  <member type="node" ref="7234581845" role="stop"/>
  <member type="node" ref="1517938686" role="platform"/>
  <member type="node" ref="7234581846" role="stop"/>
  <member type="node" ref="1094439003" role="platform"/>
  <member type="node" ref="7234581847" role="stop"/>
  <member type="node" ref="4505341893" role="platform"/>
  <member type="node" ref="7234581848" role="stop"/>
  <member type="node" ref="4505364689" role="platform"/>
  <member type="node" ref="7234581849" role="stop"/>
  <member type="node" ref="4505357492" role="platform"/>
  <member type="node" ref="7234581850" role="stop"/>
  <member type="node" ref="4505364789" role="platform"/>
  <member type="node" ref="7234581851" role="stop"/>
  <member type="node" ref="4505323205" role="platform"/>
  <member type="node" ref="7234581852" role="stop"/>
  <member type="node" ref="4505357493" role="platform"/>
  <member type="node" ref="6849228239" role="stop"/>
  <member type="node" ref="6203241971" role="platform"/>
  <member type="node" ref="6849234485" role="stop"/>
  <member type="node" ref="6203369673" role="platform"/>
  <member type="node" ref="6849238138" role="stop"/>
  <member type="node" ref="6846306432" role="platform"/>
  <member type="node" ref="6849238139" role="stop"/>
  <member type="node" ref="6846299083" role="platform"/>
  <member type="node" ref="6403336721" role="stop"/>
  <member type="node" ref="6403336722" role="platform"/>
  <member type="node" ref="6403377448" role="stop"/>
  <member type="node" ref="6403377447" role="platform"/>
  <member type="node" ref="6653190228" role="stop"/>
  <member type="node" ref="6170023732" role="platform"/>
  <member type="node" ref="6849238140" role="stop"/>
  <member type="node" ref="6844538558" role="platform"/>
  <member type="node" ref="7021198084" role="stop"/>
  <member type="node" ref="6842546252" role="platform"/>
  <member type="node" ref="6420742624" role="stop_exit_only"/>
  <member type="node" ref="6399709007" role="platform_exit_only"/>
  <member type="way" ref="682095199" role=""/>
  <member type="way" ref="324162415" role=""/>
  <member type="way" ref="33074673" role=""/>
  <member type="way" ref="300803480" role=""/>
  <member type="way" ref="658691763" role=""/>
  <member type="way" ref="658691765" role=""/>
  <member type="way" ref="934540175" role=""/>
  <member type="way" ref="933771712" role=""/>
  <member type="way" ref="933771707" role=""/>
  <member type="way" ref="355765691" role=""/>
  <member type="way" ref="155339882" role=""/>
  <member type="way" ref="300803455" role=""/>
  <member type="way" ref="1227359679" role=""/>
  <member type="way" ref="300803511" role=""/>
  <member type="way" ref="1121723903" role=""/>
  <member type="way" ref="750996768" role=""/>
  <member type="way" ref="300803515" role=""/>
  <member type="way" ref="752173105" role=""/>
  <member type="way" ref="300803516" role=""/>
  <member type="way" ref="230335373" role=""/>
  <member type="way" ref="954799116" role=""/>
  <member type="way" ref="948919833" role=""/>
  <member type="way" ref="954799114" role=""/>
  <member type="way" ref="948919831" role=""/>
  <member type="way" ref="948919832" role=""/>
  <member type="way" ref="95079247" role=""/>
  <member type="way" ref="1120094243" role=""/>
  <member type="way" ref="622194951" role=""/>
  <member type="way" ref="746280827" role=""/>
  <member type="way" ref="960005648" role=""/>
  <member type="way" ref="731241518" role=""/>
  <member type="way" ref="622194948" role=""/>
  <member type="way" ref="1120094244" role=""/>
  <member type="way" ref="1128190986" role=""/>
  <member type="way" ref="908677529" role=""/>
  <member type="way" ref="155339891" role=""/>
  <member type="way" ref="908677528" role=""/>
  <member type="way" ref="730968984" role=""/>
  <member type="way" ref="622527649" role=""/>
  <member type="way" ref="622527645" role=""/>
  <member type="way" ref="152017886" role=""/>
  <member type="way" ref="178807890" role=""/>
  <member type="way" ref="178807889" role=""/>
  <member type="way" ref="155339879" role=""/>
  <member type="way" ref="877741880" role=""/>
  <member type="way" ref="155339867" role=""/>
  <member type="way" ref="155339862" role=""/>
  <member type="way" ref="750995804" role=""/>
  <member type="way" ref="750995805" role=""/>
  <member type="way" ref="324162408" role=""/>
  <member type="way" ref="155339869" role=""/>
  <member type="way" ref="155339880" role=""/>
  <member type="way" ref="731240904" role=""/>
  <tag k="colour" v="#3cbbf2"/>
  <tag k="interval" v="00:07"/>
  <tag k="name" v="1-CCW วงกลม นนทบุรี - สนามบินน้ำ (วนซ้าย)"/>
  <tag k="name:en" v="1-CCW Circle route Nonthaburi - Sanambin Nam (Left loop)"/>
  <tag k="name:th" v="1-CCW วงกลม นนทบุรี - สนามบินน้ำ (วนซ้าย)"/>
  <tag k="opening_hours" v="Mo-Su 05:30-20:00"/>
  <tag k="operator" v="บริษัท สนามบินน้ำ จำกัด"/>
  <tag k="public_transport:version" v="2"/>
  <tag k="ref" v="1"/>
  <tag k="route" v="bus"/>
  <tag k="type" v="route"/>
 </relation>
 <relation id="9159675" visible="true" version="78" changeset="165492007" timestamp="2025-04-27T07:06:16Z" user="Kri_ttt" uid="13669494">
  <member type="node" ref="6388595805" role="stop_entry_only"/>
  <member type="node" ref="6399709006" role="platform_entry_only"/>
  <member type="node" ref="6849114363" role="stop"/>
  <member type="node" ref="6844423149" role="platform"/>
  <member type="node" ref="6849114364" role="stop"/>
  <member type="node" ref="6844423150" role="platform"/>
  <member type="node" ref="6849114365" role="stop"/>
  <member type="node" ref="6844423151" role="platform"/>
  <member type="node" ref="6653192144" role="stop"/>
  <member type="node" ref="6170032785" role="platform"/>
  <member type="node" ref="6849223129" role="stop"/>
  <member type="node" ref="6844532250" role="platform"/>
  <member type="node" ref="6653187235" role="stop"/>
  <member type="node" ref="6170023731" role="platform"/>
  <member type="node" ref="6403369522" role="stop"/>
  <member type="node" ref="6403369521" role="platform"/>
  <member type="node" ref="6849227821" role="stop"/>
  <member type="node" ref="6846299084" role="platform"/>
  <member type="node" ref="6849186562" role="stop"/>
  <member type="node" ref="6846306431" role="platform"/>
  <member type="node" ref="6849186563" role="stop"/>
  <member type="node" ref="6203369672" role="platform"/>
  <member type="node" ref="6849186564" role="stop"/>
  <member type="node" ref="6203236985" role="platform"/>
  <member type="node" ref="6849186565" role="stop"/>
  <member type="node" ref="6203241970" role="platform"/>
  <member type="node" ref="6850796534" role="stop"/>
  <member type="node" ref="4505357494" role="platform"/>
  <member type="node" ref="6850796535" role="stop"/>
  <member type="node" ref="6203236580" role="platform"/>
  <member type="node" ref="6850823479" role="stop"/>
  <member type="node" ref="6844054640" role="platform"/>
  <member type="node" ref="6850823480" role="stop"/>
  <member type="node" ref="6844054641" role="platform"/>
  <member type="node" ref="7254252903" role="stop"/>
  <member type="node" ref="7254252902" role="platform"/>
  <member type="node" ref="6850823481" role="stop"/>
  <member type="node" ref="6842542874" role="platform"/>
  <member type="node" ref="6850822269" role="stop"/>
  <member type="node" ref="1517938687" role="platform"/>
  <member type="node" ref="6850822270" role="stop"/>
  <member type="node" ref="1517938681" role="platform"/>
  <member type="node" ref="6850822271" role="stop"/>
  <member type="node" ref="4505337590" role="platform"/>
  <member type="node" ref="6850831286" role="stop"/>
  <member type="node" ref="6741748104" role="platform"/>
  <member type="node" ref="6850831287" role="stop"/>
  <member type="node" ref="6741713665" role="platform"/>
  <member type="node" ref="6850831288" role="stop"/>
  <member type="node" ref="6741709327" role="platform"/>
  <member type="node" ref="6850831289" role="stop"/>
  <member type="node" ref="6760974028" role="platform"/>
  <member type="node" ref="6850831290" role="stop"/>
  <member type="node" ref="6579330273" role="platform"/>
  <member type="node" ref="6654287332" role="stop"/>
  <member type="node" ref="6162654293" role="platform"/>
  <member type="node" ref="6654287333" role="stop"/>
  <member type="node" ref="6322386139" role="platform"/>
  <member type="node" ref="6579410061" role="stop"/>
  <member type="node" ref="6579410059" role="platform"/>
  <member type="node" ref="6853229889" role="stop"/>
  <member type="node" ref="6853210403" role="platform"/>
  <member type="node" ref="6853229890" role="stop"/>
  <member type="node" ref="6853229888" role="platform"/>
  <member type="node" ref="6654342830" role="stop"/>
  <member type="node" ref="6482171876" role="platform"/>
  <member type="node" ref="6416235008" role="stop"/>
  <member type="node" ref="6416235006" role="platform"/>
  <member type="node" ref="6388595805" role="stop_exit_only"/>
  <member type="node" ref="6399709006" role="platform_exit_only"/>
  <member type="way" ref="155339895" role=""/>
  <member type="way" ref="731240905" role=""/>
  <member type="way" ref="960005647" role=""/>
  <member type="way" ref="622194942" role=""/>
  <member type="way" ref="941181930" role=""/>
  <member type="way" ref="941181931" role=""/>
  <member type="way" ref="941181928" role=""/>
  <member type="way" ref="941181929" role=""/>
  <member type="way" ref="622194945" role=""/>
  <member type="way" ref="908677530" role=""/>
  <member type="way" ref="730968982" role=""/>
  <member type="way" ref="908677531" role=""/>
  <member type="way" ref="300825125" role=""/>
  <member type="way" ref="622527654" role=""/>
  <member type="way" ref="622527657" role=""/>
  <member type="way" ref="178807888" role=""/>
  <member type="way" ref="178807887" role=""/>
  <member type="way" ref="155339894" role=""/>
  <member type="way" ref="877741883" role=""/>
  <member type="way" ref="877741882" role=""/>
  <member type="way" ref="877741884" role=""/>
  <member type="way" ref="155339881" role=""/>
  <member type="way" ref="155339864" role=""/>
  <member type="way" ref="324162409" role=""/>
  <member type="way" ref="324162406" role=""/>
  <member type="way" ref="155339873" role=""/>
  <member type="way" ref="155339870" role=""/>
  <member type="way" ref="685215089" role=""/>
  <member type="way" ref="95079254" role=""/>
  <member type="way" ref="682095199" role=""/>
  <member type="way" ref="324162415" role=""/>
  <member type="way" ref="33074673" role=""/>
  <member type="way" ref="300803480" role=""/>
  <member type="way" ref="658691763" role=""/>
  <member type="way" ref="658691765" role=""/>
  <member type="way" ref="934540175" role=""/>
  <member type="way" ref="933771712" role=""/>
  <member type="way" ref="194755475" role=""/>
  <member type="way" ref="300825129" role=""/>
  <member type="way" ref="948919835" role=""/>
  <member type="way" ref="948919834" role=""/>
  <member type="way" ref="954799115" role=""/>
  <member type="way" ref="300803514" role=""/>
  <member type="way" ref="1050570871" role=""/>
  <member type="way" ref="230335371" role=""/>
  <member type="way" ref="1121723904" role=""/>
  <member type="way" ref="1121723905" role=""/>
  <member type="way" ref="1227359676" role=""/>
  <member type="way" ref="1121723895" role=""/>
  <member type="way" ref="140675204" role=""/>
  <member type="way" ref="685218187" role=""/>
  <member type="way" ref="230335361" role=""/>
  <member type="way" ref="675647326" role=""/>
  <member type="way" ref="355765686" role=""/>
  <member type="way" ref="355765687" role=""/>
  <member type="way" ref="355765690" role=""/>
  <member type="way" ref="355765691" role=""/>
  <member type="way" ref="933771707" role=""/>
  <tag k="colour" v="#3cbbf2"/>
  <tag k="interval" v="00:07"/>
  <tag k="name" v="1-CW วงกลม นนทบุรี - สนามบินน้ำ (วนขวา)"/>
  <tag k="name:en" v="1-CW Circle route Nonthaburi - Sanambin Nam (Right loop)"/>
  <tag k="name:th" v="1-CW วงกลม นนทบุรี - สนามบินน้ำ (วนขวา)"/>
  <tag k="opening_hours" v="Mo-Su 05:30-20:00"/>
  <tag k="operator" v="บริษัท สนามบินน้ำ จำกัด"/>
  <tag k="public_transport:version" v="2"/>
  <tag k="ref" v="1"/>
  <tag k="route" v="bus"/>
  <tag k="type" v="route"/>
 </relation>
 <relation id="9160023" visible="true" version="4" changeset="77180197" timestamp="2019-11-17T04:42:30Z" user="swpk" uid="8958842">
  <member type="relation" ref="9159675" role=""/>
  <member type="relation" ref="9159635" role=""/>
  <tag k="name" v="1 Circle route Nonthaburi - Sanambin Nam Route Master"/>
  <tag k="operator" v="บริษัท สนามบินน้ำ จำกัด"/>
  <tag k="ref" v="1"/>
  <tag k="route_master" v="bus"/>
  <tag k="type" v="route_master"/>
 </relation>
 <relation id="9465463" visible="true" version="74" changeset="164468656" timestamp="2025-04-03T14:42:52Z" user="Kri_ttt" uid="13669494">
  <member type="node" ref="6376031712" role="stop"/>
  <member type="node" ref="2184393450" role="stop"/>
  <member type="node" ref="1971354187" role="stop"/>
  <member type="node" ref="1388399020" role="stop"/>
  <member type="node" ref="1517938681" role="stop"/>
  <member type="node" ref="4505337590" role="stop"/>
  <member type="node" ref="5480820822" role="stop"/>
  <member type="node" ref="6167683266" role="stop"/>
  <member type="node" ref="6162660121" role="stop"/>
  <member type="node" ref="1517938662" role="platform"/>
  <member type="node" ref="6169989734" role="stop"/>
  <member type="node" ref="6416335926" role="stop"/>
  <member type="node" ref="6416335925" role="platform"/>
  <member type="node" ref="6403336721" role="stop"/>
  <member type="node" ref="6403336722" role="platform"/>
  <member type="node" ref="6403377448" role="stop"/>
  <member type="node" ref="6403377447" role="platform"/>
  <member type="node" ref="6653190228" role="stop"/>
  <member type="node" ref="6170023732" role="platform"/>
  <member type="node" ref="6420742624" role="stop"/>
  <member type="node" ref="6399709007" role="platform"/>
  <member type="node" ref="6388595805" role="stop_exit_only"/>
  <member type="node" ref="6399709006" role="platform_exit_only"/>
  <member type="way" ref="682197224" role=""/>
  <member type="way" ref="893207533" role=""/>
  <member type="way" ref="893207532" role=""/>
  <member type="way" ref="230335357" role=""/>
  <member type="way" ref="1192564421" role=""/>
  <member type="way" ref="1192564422" role=""/>
  <member type="way" ref="200337231" role=""/>
  <member type="way" ref="1192565122" role=""/>
  <member type="way" ref="1192565121" role=""/>
  <member type="way" ref="814758430" role=""/>
  <member type="way" ref="117109912" role=""/>
  <member type="way" ref="117109916" role=""/>
  <member type="way" ref="814758431" role=""/>
  <member type="way" ref="168739106" role=""/>
  <member type="way" ref="168739105" role=""/>
  <member type="way" ref="893207531" role=""/>
  <member type="way" ref="893207530" role=""/>
  <member type="way" ref="141204727" role=""/>
  <member type="way" ref="200499032" role=""/>
  <member type="way" ref="230335360" role=""/>
  <member type="way" ref="117108759" role=""/>
  <member type="way" ref="155607258" role=""/>
  <member type="way" ref="1047147554" role=""/>
  <member type="way" ref="1026067476" role=""/>
  <member type="way" ref="141208545" role=""/>
  <member type="way" ref="207797195" role=""/>
  <member type="way" ref="155607288" role=""/>
  <member type="way" ref="1194309869" role=""/>
  <member type="way" ref="1062085561" role=""/>
  <member type="way" ref="124809696" role=""/>
  <member type="way" ref="124809673" role=""/>
  <member type="way" ref="230335354" role=""/>
  <member type="way" ref="1047147553" role=""/>
  <member type="way" ref="1055907231" role=""/>
  <member type="way" ref="246153006" role=""/>
  <member type="way" ref="1055943373" role=""/>
  <member type="way" ref="300803439" role=""/>
  <member type="way" ref="168739080" role=""/>
  <member type="way" ref="1243926988" role=""/>
  <member type="way" ref="230328189" role=""/>
  <member type="way" ref="156319979" role=""/>
  <member type="way" ref="124874069" role=""/>
  <member type="way" ref="1192377924" role=""/>
  <member type="way" ref="1192377925" role=""/>
  <member type="way" ref="175282256" role=""/>
  <member type="way" ref="238733639" role=""/>
  <member type="way" ref="124874068" role=""/>
  <member type="way" ref="156319976" role=""/>
  <member type="way" ref="300803436" role=""/>
  <member type="way" ref="168739075" role=""/>
  <member type="way" ref="300803437" role=""/>
  <member type="way" ref="168739087" role=""/>
  <member type="way" ref="1104449419" role=""/>
  <member type="way" ref="616844012" role=""/>
  <member type="way" ref="616844011" role=""/>
  <member type="way" ref="258891484" role=""/>
  <member type="way" ref="258891485" role=""/>
  <member type="way" ref="258891483" role=""/>
  <member type="way" ref="1192369407" role=""/>
  <member type="way" ref="124812304" role=""/>
  <member type="way" ref="230335362" role=""/>
  <member type="way" ref="199988157" role=""/>
  <member type="way" ref="199988156" role=""/>
  <member type="way" ref="152933567" role=""/>
  <member type="way" ref="1081549332" role=""/>
  <member type="way" ref="617537909" role=""/>
  <member type="way" ref="194755462" role=""/>
  <member type="way" ref="151682722" role=""/>
  <member type="way" ref="1177508134" role=""/>
  <member type="way" ref="194755461" role=""/>
  <member type="way" ref="151682723" role=""/>
  <member type="way" ref="230335374" role=""/>
  <member type="way" ref="300825129" role=""/>
  <member type="way" ref="948919835" role=""/>
  <member type="way" ref="948919834" role=""/>
  <member type="way" ref="954799115" role=""/>
  <member type="way" ref="300803514" role=""/>
  <member type="way" ref="1050570871" role=""/>
  <member type="way" ref="155339884" role=""/>
  <member type="way" ref="300803499" role=""/>
  <member type="way" ref="750671275" role=""/>
  <member type="way" ref="720870692" role=""/>
  <member type="way" ref="618144714" role=""/>
  <member type="way" ref="618144713" role=""/>
  <member type="way" ref="155339887" role=""/>
  <member type="way" ref="675580125" role=""/>
  <member type="way" ref="750669465" role=""/>
  <member type="way" ref="675580124" role=""/>
  <member type="way" ref="675579768" role=""/>
  <member type="way" ref="750669466" role=""/>
  <member type="way" ref="1106535242" role=""/>
  <member type="way" ref="95079253" role=""/>
  <member type="way" ref="155339879" role=""/>
  <member type="way" ref="877741880" role=""/>
  <member type="way" ref="155339867" role=""/>
  <member type="way" ref="155339862" role=""/>
  <member type="way" ref="750995804" role=""/>
  <member type="way" ref="750995805" role=""/>
  <member type="way" ref="324162408" role=""/>
  <member type="way" ref="155339869" role=""/>
  <member type="way" ref="155339880" role=""/>
  <member type="way" ref="731240904" role=""/>
  <tag k="colour" v="#3cbbf2"/>
  <tag k="from" v="Wat Sali Kho Phitaram"/>
  <tag k="interval" v="00:13"/>
  <tag k="name" v="1053 วัดสาลีโขภิตาราม → นนทบุรี"/>
  <tag k="name:en" v="1053 Wat Sali Kho Phitaram → Nonthaburi"/>
  <tag k="name:th" v="1053 วัดสาลีโขภิตาราม → นนทบุรี"/>
  <tag k="opening_hours" v="Mo-Su 05:30-20:00"/>
  <tag k="operator" v="บริษัท สนามบินน้ำ จำกัด"/>
  <tag k="public_transport:version" v="2"/>
  <tag k="ref" v="1053"/>
  <tag k="route" v="bus"/>
  <tag k="to" v="Nonthaburi Pier"/>
  <tag k="type" v="route"/>
 </relation>
 <relation id="9465582" visible="true" version="3" changeset="72719189" timestamp="2019-07-27T15:26:14Z" user="swpk" uid="8958842">
  <member type="relation" ref="3088610" role=""/>
  <member type="relation" ref="9465463" role=""/>
  <tag k="name" v="1053 Nonthaburi-Wat Sali Kho Phitaram Route Master"/>
  <tag k="ref" v="1053"/>
  <tag k="route_master" v="bus"/>
  <tag k="type" v="route_master"/>
 </relation>
 <relation id="10111136" visible="true" version="14" changeset="107243380" timestamp="2021-07-01T07:03:21Z" user="GrabTH_Kulyada" uid="13325735">
  <member type="node" ref="6420686396" role="stop_entry_only"/>
  <member type="node" ref="6420742623" role="platform_entry_only"/>
  <member type="node" ref="6849114363" role="stop"/>
  <member type="node" ref="6844423149" role="platform"/>
  <member type="node" ref="6849114364" role="stop"/>
  <member type="node" ref="6844423150" role="platform"/>
  <member type="node" ref="6849114365" role="stop"/>
  <member type="node" ref="6844423151" role="platform"/>
  <member type="node" ref="6653192144" role="stop"/>
  <member type="node" ref="6170032785" role="platform"/>
  <member type="node" ref="6849223129" role="stop"/>
  <member type="node" ref="6844532250" role="platform"/>
  <member type="node" ref="6653187235" role="stop"/>
  <member type="node" ref="6170023731" role="platform"/>
  <member type="node" ref="6403369522" role="stop"/>
  <member type="node" ref="6403369521" role="platform"/>
  <member type="node" ref="6849227821" role="stop"/>
  <member type="node" ref="6846299084" role="platform"/>
  <member type="node" ref="6849186562" role="stop"/>
  <member type="node" ref="6846306431" role="platform"/>
  <member type="node" ref="6849186563" role="stop"/>
  <member type="node" ref="6203369672" role="platform"/>
  <member type="node" ref="6849186564" role="stop"/>
  <member type="node" ref="6203236985" role="platform"/>
  <member type="node" ref="6849186565" role="stop_exit_only"/>
  <member type="node" ref="6203241970" role="platform_exit_only"/>
  <member type="node" ref="7708856921" role=""/>
  <member type="way" ref="731240904" role=""/>
  <member type="way" ref="685218188" role=""/>
  <member type="way" ref="230335361" role=""/>
  <member type="way" ref="685215089" role=""/>
  <member type="way" ref="155339870" role=""/>
  <member type="way" ref="155339873" role=""/>
  <member type="way" ref="324162406" role=""/>
  <member type="way" ref="324162409" role=""/>
  <member type="way" ref="155339864" role=""/>
  <member type="way" ref="155339881" role=""/>
  <member type="way" ref="877741884" role=""/>
  <member type="way" ref="877741882" role=""/>
  <member type="way" ref="877741883" role=""/>
  <member type="way" ref="155339894" role=""/>
  <member type="way" ref="178807887" role=""/>
  <member type="way" ref="178807888" role=""/>
  <member type="way" ref="622527657" role=""/>
  <member type="way" ref="622527654" role=""/>
  <member type="way" ref="300825125" role=""/>
  <member type="way" ref="908677531" role=""/>
  <member type="way" ref="730968982" role=""/>
  <member type="way" ref="908677530" role=""/>
  <member type="way" ref="622194945" role=""/>
  <member type="way" ref="622194942" role=""/>
  <member type="way" ref="960005647" role=""/>
  <tag k="colour" v="#3cbbf2"/>
  <tag k="from" v="Nonthauri Police Forensic Science"/>
  <tag k="interval" v="00:05"/>
  <tag k="name" v="1 (รถกะป๊อ) นนทบุรี → วัดชมภูเวก"/>
  <tag k="name:en" v="1 (Kei truck) Nonthaburi → Wat Chomphu Wek"/>
  <tag k="name:th" v="1 (รถกะป๊อ) นนทบุรี → วัดชมภูเวก"/>
  <tag k="opening_hours" v="Mo-Su 05:00-21:00"/>
  <tag k="operator" v="บริษัท สนามบินน้ำ จำกัด"/>
  <tag k="public_transport:version" v="2"/>
  <tag k="ref" v="1Kei"/>
  <tag k="route" v="bus"/>
  <tag k="to" v="Wat Chomphu Wek"/>
  <tag k="type" v="route"/>
 </relation>
 <relation id="10111137" visible="true" version="18" changeset="161817296" timestamp="2025-01-27T12:55:21Z" user="Russ McD" uid="346601">
  <member type="node" ref="6849228239" role="stop_entry_only"/>
  <member type="node" ref="6203241971" role="platform_entry_only"/>
  <member type="node" ref="6849234485" role="stop"/>
  <member type="node" ref="6203369673" role="platform"/>
  <member type="node" ref="6849238138" role="stop"/>
  <member type="node" ref="6846306432" role="platform"/>
  <member type="node" ref="6849238139" role="stop"/>
  <member type="node" ref="6846299083" role="platform"/>
  <member type="node" ref="6403336721" role="stop"/>
  <member type="node" ref="6403336722" role="platform"/>
  <member type="node" ref="6403377448" role="stop"/>
  <member type="node" ref="6403377447" role="platform"/>
  <member type="node" ref="6653190228" role="stop"/>
  <member type="node" ref="6170023732" role="platform"/>
  <member type="node" ref="6849238140" role="stop"/>
  <member type="node" ref="6844538558" role="platform"/>
  <member type="node" ref="6420742624" role="stop_exit_only"/>
  <member type="node" ref="6399709007" role="platform_exit_only"/>
  <member type="node" ref="7708856922" role="marker"/>
  <member type="way" ref="746280827" role=""/>
  <member type="way" ref="960005648" role=""/>
  <member type="way" ref="731241518" role=""/>
  <member type="way" ref="622194948" role=""/>
  <member type="way" ref="1120094244" role=""/>
  <member type="way" ref="1128190986" role=""/>
  <member type="way" ref="908677529" role=""/>
  <member type="way" ref="155339891" role=""/>
  <member type="way" ref="908677528" role=""/>
  <member type="way" ref="730968984" role=""/>
  <member type="way" ref="622527649" role=""/>
  <member type="way" ref="622527645" role=""/>
  <member type="way" ref="152017886" role=""/>
  <member type="way" ref="178807890" role=""/>
  <member type="way" ref="178807889" role=""/>
  <member type="way" ref="155339879" role=""/>
  <member type="way" ref="877741880" role=""/>
  <member type="way" ref="155339867" role=""/>
  <member type="way" ref="155339862" role=""/>
  <member type="way" ref="750995804" role=""/>
  <member type="way" ref="750995805" role=""/>
  <member type="way" ref="324162408" role=""/>
  <member type="way" ref="155339869" role=""/>
  <member type="way" ref="155339880" role=""/>
  <member type="way" ref="731240904" role=""/>
  <tag k="colour" v="#3cbbf2"/>
  <tag k="from" v="Wat Chomphu Wek"/>
  <tag k="interval" v="00:05"/>
  <tag k="name" v="1 (รถกะป๊อ) วัดชมภูเวก → นนทบุรี"/>
  <tag k="name:en" v="1 (Kei truck) Wat Chomphu Wek → Nonthaburi"/>
  <tag k="name:th" v="1 (รถกะป๊อ) วัดชมภูเวก → นนทบุรี"/>
  <tag k="opening_hours" v="Mo-Su 05:00-21:00"/>
  <tag k="operator" v="บริษัท สนามบินน้ำ จำกัด"/>
  <tag k="public_transport:version" v="2"/>
  <tag k="ref" v="1Kei"/>
  <tag k="route" v="bus"/>
  <tag k="to" v="Soi Nonthaburi 2/1"/>
  <tag k="type" v="route"/>
 </relation>
 <relation id="10111151" visible="true" version="1" changeset="75260303" timestamp="2019-10-04T05:04:58Z" user="swpk" uid="8958842">
  <member type="relation" ref="10111136" role=""/>
  <member type="relation" ref="10111137" role=""/>
  <tag k="name" v="1 (เสริม) นนทบุรี-วัดชมภูเวก Route Master"/>
  <tag k="name:en" v="1 (Supplementary bus) Nonthaburi-Wat Chomphu Wek Route Master"/>
  <tag k="name:th" v="1 (เสริม) นนทบุรี-วัดชมภูเวก Route Master"/>
  <tag k="operator" v="บริษัท สนามบินน้ำ จำกัด"/>
  <tag k="ref" v="1SUPP"/>
  <tag k="route_master" v="bus"/>
  <tag k="type" v="route_master"/>
 </relation>
 <relation id="11948865" visible="true" version="2" changeset="162109504" timestamp="2025-02-04T04:15:55Z" user="GrabTH_Praiya" uid="18100118">
  <member type="way" ref="155339879" role="from"/>
  <member type="way" ref="877741882" role="to"/>
  <tag k="restriction" v="no_u_turn"/>
  <tag k="type" v="restriction"/>
 </relation>
</osm>
